[{"OBJECT_NAME":"REIMEI (INDEX)","OBJECT_ID":"2005-031B","EPOCH":"2026-03-09T21:15:47.083968","MEAN_MOTION":15.09838737,"ECCENTRICITY":0.00209792,"INCLINATION":97.9988,"RA_OF_ASC_NODE":188.389,"ARG_OF_PERICENTER":89.5619,"MEAN_ANOMALY":270.8013,"EPHEMERIS_TYPE":0,"CLASSIFICATION_TYPE":"U","NORAD_CAT_ID":28810,"ELEMENT_SET_NO":999,"REV_AT_EPOCH":11600,"BSTAR":0.00050498736,"MEAN_MOTION_DOT":8.144e-5,"MEAN_MOTION_DDOT":0},{"OBJECT_NAME":"STARLINK-34719","OBJECT_ID":"2025-158M","EPOCH":"2026-03-09T12:42:55.980576","MEAN_MOTION":15.05651936,"ECCENTRICITY":0.00025731,"INCLINATION":97.6018,"RA_OF_ASC_NODE":293.9582,"ARG_OF_PERICENTER":93.7778,"MEAN_ANOMALY":266.3743,"EPHEMERIS_TYPE":0,"CLASSIFICATION_TYPE":"U","NORAD_CAT_ID":64943,"ELEMENT_SET_NO":999,"REV_AT_EPOCH":3533,"BSTAR":0.00016005727,"MEAN_MOTION_DOT":2.25e-5,"MEAN_MOTION_DDOT":0}]
